[{"OBJECT_NAME":"STARLINK-30476","OBJECT_ID":"2023-147T","EPOCH":"2026-03-09T21:58:09.534432","MEAN_MOTION":15.36840948,"ECCENTRICITY":0.00192261,"INCLINATION":42.9949,"RA_OF_ASC_NODE":270.5227,"ARG_OF_PERICENTER":243.5984,"MEAN_ANOMALY":116.2898,"EPHEMERIS_TYPE":0,"CLASSIFICATION_TYPE":"U","NORAD_CAT_ID":57930,"ELEMENT_SET_NO":999,"REV_AT_EPOCH":13725,"BSTAR":0.0025736749,"MEAN_MOTION_DOT":0.00096215,"MEAN_MOTION_DDOT":0},{"OBJECT_NAME":"YAOGAN-43 01J","OBJECT_ID":"2024-148J","EPOCH":"2026-03-09T23:54:35.791776","MEAN_MOTION":15.33667219,"ECCENTRICITY":0.00056275,"INCLINATION":34.9924,"RA_OF_ASC_NODE":49.1806,"ARG_OF_PERICENTER":63.4278,"MEAN_ANOMALY":296.7016,"EPHEMERIS_TYPE":0,"CLASSIFICATION_TYPE":"U","NORAD_CAT_ID":60466,"ELEMENT_SET_NO":999,"REV_AT_EPOCH":8718,"BSTAR":0.00053111003,"MEAN_MOTION_DOT":0.0001776,"MEAN_MOTION_DDOT":0}]
